{"type": "FeatureCollection", "features": [ {"type": "Feature", "properties": {"norad_id": 57401, "name": "TIANMU-1 09", "group": "weather", "lat": -67.32817511025765, "lon": 65.04114476853718, "alt_km": 490.50690829273935, "timestamp": "2025-12-24T07:45:05.842145+00:00", "meta": {"OBJECT_NAME": "TIANMU-1 09", "OBJECT_ID": "2023-101C", "EPOCH": "2025-12-23T22:37:19.744032", "MEAN_MOTION": 15.28241498, "ECCENTRICITY": 0.00062867, "INCLINATION": 97.2802, "RA_OF_ASC_NODE": 46.8488, "ARG_OF_PERICENTER": 53.2205, "MEAN_ANOMALY": 306.9611, "EPHEMERIS_TYPE": 0, "CLASSIFICATION_TYPE": "U", "NORAD_CAT_ID": 57401, "ELEMENT_SET_NO": 999, "REV_AT_EPOCH": 13486, "BSTAR": 0.00028197164, "MEAN_MOTION_DOT": 7.691e-05, "MEAN_MOTION_DDOT": 0}, "tle": {"line1": "1 57401U 23101C   25357.94258963  .00007691  00000+0  28197-3 0  9994", "line2": "2 57401  97.2802  46.8488 0006286  53.2205 306.9611 15.28241498134866"}}, "geometry": {"type": "Point", "coordinates": [65.04114476853718, -67.32817511025765]}}, {"type": "Feature", "properties": {"norad_id": 57402, "name": "TIANMU-1 10", "group": "weather", "lat": 74.84863838829087, "lon": -103.7109543407884, "alt_km": 470.7326888729458, "timestamp": "2025-12-24T07:45:05.842160+00:00", "meta": {"OBJECT_NAME": "TIANMU-1 10", "OBJECT_ID": "2023-101D", "EPOCH": "2025-12-23T23:26:40.769664", "MEAN_MOTION": 15.2823372, "ECCENTRICITY": 0.00080177, "INCLINATION": 97.2883, "RA_OF_ASC_NODE": 47.744, "ARG_OF_PERICENTER": 50.5793, "MEAN_ANOMALY": 309.6155, "EPHEMERIS_TYPE": 0, "CLASSIFICATION_TYPE": "U", "NORAD_CAT_ID": 57402, "ELEMENT_SET_NO": 999, "REV_AT_EPOCH": 13486, "BSTAR": 0.00028747949, "MEAN_MOTION_DOT": 7.844e-05, "MEAN_MOTION_DDOT": 0}, "tle": {"line1": "1 57402U 23101D   25357.97686076  .00007844  00000+0  28748-3 0  9990", "line2": "2 57402  97.2883  47.7440 0008017  50.5793 309.6155 15.28233720134862"}}, "geometry": {"type": "Point", "coordinates": [-103.7109543407884, 74.84863838829087]}}, {"type": "Feature", "properties": {"norad_id": 57490, "name": "FENGYUN 3F", "group": "weather", "lat": 3.7526859560703825, "lon": -112.99549102377954, "alt_km": 827.8317055464713, "timestamp": "2025-12-24T07:45:05.842171+00:00", "meta": {"OBJECT_NAME": "FENGYUN 3F", "OBJECT_ID": "2023-111A", "EPOCH": "2025-12-23T22:28:08.193216", "MEAN_MOTION": 14.19896404, "ECCENTRICITY": 8.112e-05, "INCLINATION": 98.7068, "RA_OF_ASC_NODE": 66.0482, "ARG_OF_PERICENTER": 116.1399, "MEAN_ANOMALY": 243.9861, "EPHEMERIS_TYPE": 0, "CLASSIFICATION_TYPE": "U", "NORAD_CAT_ID": 57490, "ELEMENT_SET_NO": 999, "REV_AT_EPOCH": 12399, "BSTAR": 6.190362e-05, "MEAN_MOTION_DOT": 8.8e-07, "MEAN_MOTION_DDOT": 0}, "tle": {"line1": "1 57490U 23111A   25357.93620594  .00000088  00000+0  61904-4 0  9992", "line2": "2 57490  98.7068  66.0482 0000811 116.1399 243.9861 14.19896404123994"}}, "geometry": {"type": "Point", "coordinates": [-112.99549102377954, 3.7526859560703825]}}, {"type": "Feature", "properties": {"norad_id": 58584, "name": "ARKTIKA-M 2", "group": "weather", "lat": 28.681493662032842, "lon": -170.33831899209716, "alt_km": 16592.997372282876, "timestamp": "2025-12-24T07:45:05.842184+00:00", "meta": {"OBJECT_NAME": "ARKTIKA-M 2", "OBJECT_ID": "2023-198A", "EPOCH": "2025-12-23T19:04:51.780000", "MEAN_MOTION": 2.00602438, "ECCENTRICITY": 0.68658211, "INCLINATION": 63.2256, "RA_OF_ASC_NODE": 173.6885, "ARG_OF_PERICENTER": 268.0594, "MEAN_ANOMALY": 18.8414, "EPHEMERIS_TYPE": 0, "CLASSIFICATION_TYPE": "U", "NORAD_CAT_ID": 58584, "ELEMENT_SET_NO": 999, "REV_AT_EPOCH": 1480, "BSTAR": 0, "MEAN_MOTION_DOT": 2.16e-06, "MEAN_MOTION_DDOT": 0}, "tle": {"line1": "1 58584U 23198A   25357.79504375  .00000216  00000+0  00000+0 0  9992", "line2": "2 58584  63.2256 173.6885 6865821 268.0594  18.8414  2.00602438 14808"}}, "geometry": {"type": "Point", "coordinates": [-170.33831899209716, 28.681493662032842]}}, {"type": "Feature", "properties": {"norad_id": 58645, "name": "TIANMU-1 11", "group": "weather", "lat": 42.47824030064083, "lon": -155.4608561582163, "alt_km": 491.07474373414334, "timestamp": "2025-12-24T07:45:05.842196+00:00", "meta": {"OBJECT_NAME": "TIANMU-1 11", "OBJECT_ID": "2023-205A", "EPOCH": "2025-12-23T23:16:36.422400", "MEAN_MOTION": 15.24729348, "ECCENTRICITY": 0.00075419, "INCLINATION": 97.3595, "RA_OF_ASC_NODE": 17.3956, "ARG_OF_PERICENTER": 262.3491, "MEAN_ANOMALY": 97.6891, "EPHEMERIS_TYPE": 0, "CLASSIFICATION_TYPE": "U", "NORAD_CAT_ID": 58645, "ELEMENT_SET_NO": 999, "REV_AT_EPOCH": 11080, "BSTAR": 0.00025157285, "MEAN_MOTION_DOT": 6.161e-05, "MEAN_MOTION_DDOT": 0}, "tle": {"line1": "1 58645U 23205A   25357.96986600  .00006161  00000+0  25157-3 0  9992", "line2": "2 58645  97.3595  17.3956 0007541 262.3491  97.6891 15.24729348110808"}}, "geometry": {"type": "Point", "coordinates": [-155.4608561582163, 42.47824030064083]}}, {"type": "Feature", "properties": {"norad_id": 58646, "name": "TIANMU-1 12", "group": "weather", "lat": -15.452013596152, "lon": 19.591369382001112, "alt_km": 497.88622520287026, "timestamp": "2025-12-24T07:45:05.842206+00:00", "meta": {"OBJECT_NAME": "TIANMU-1 12", "OBJECT_ID": "2023-205B", "EPOCH": "2025-12-23T23:56:38.269824", "MEAN_MOTION": 15.24616313, "ECCENTRICITY": 0.00059356, "INCLINATION": 97.3583, "RA_OF_ASC_NODE": 17.2247, "ARG_OF_PERICENTER": 240.0419, "MEAN_ANOMALY": 120.023, "EPHEMERIS_TYPE": 0, "CLASSIFICATION_TYPE": "U", "NORAD_CAT_ID": 58646, "ELEMENT_SET_NO": 999, "REV_AT_EPOCH": 11079, "BSTAR": 0.0002749559, "MEAN_MOTION_DOT": 6.716e-05, "MEAN_MOTION_DDOT": 0}, "tle": {"line1": "1 58646U 23205B   25357.99766516  .00006716  00000+0  27496-3 0  9992", "line2": "2 58646  97.3583  17.2247 0005935 240.0419 120.0230 15.24616313110799"}}, "geometry": {"type": "Point", "coordinates": [19.591369382001112, -15.452013596152]}}, {"type": "Feature", "properties": {"norad_id": 58647, "name": "TIANMU-1 13", "group": "weather", "lat": 17.530068165227824, "lon": -159.90965211826276, "alt_km": 489.72961575849513, "timestamp": "2025-12-24T07:45:05.842217+00:00", "meta": {"OBJECT_NAME": "TIANMU-1 13", "OBJECT_ID": "2023-205C", "EPOCH": "2025-12-23T23:09:58.787136", "MEAN_MOTION": 15.2465878, "ECCENTRICITY": 0.00065498, "INCLINATION": 97.361, "RA_OF_ASC_NODE": 17.3985, "ARG_OF_PERICENTER": 217.8704, "MEAN_ANOMALY": 142.2074, "EPHEMERIS_TYPE": 0, "CLASSIFICATION_TYPE": "U", "NORAD_CAT_ID": 58647, "ELEMENT_SET_NO": 999, "REV_AT_EPOCH": 11078, "BSTAR": 0.00026020643, "MEAN_MOTION_DOT": 6.36e-05, "MEAN_MOTION_DDOT": 0}, "tle": {"line1": "1 58647U 23205C   25357.96526374  .00006360  00000+0  26021-3 0  9994", "line2": "2 58647  97.3610  17.3985 0006549 217.8704 142.2074 15.24658780110787"}}, "geometry": {"type": "Point", "coordinates": [-159.90965211826276, 17.530068165227824]}}, {"type": "Feature", "properties": {"norad_id": 58648, "name": "TIANMU-1 14", "group": "weather", "lat": -71.23467619643914, "lon": 174.74519541277826, "alt_km": 494.8290641217918, "timestamp": "2025-12-24T07:45:05.842232+00:00", "meta": {"OBJECT_NAME": "TIANMU-1 14", "OBJECT_ID": "2023-205D", "EPOCH": "2025-12-24T00:20:45.784320", "MEAN_MOTION": 15.24642532, "ECCENTRICITY": 0.00072657, "INCLINATION": 97.3543, "RA_OF_ASC_NODE": 16.7852, "ARG_OF_PERICENTER": 223.9345, "MEAN_ANOMALY": 136.1316, "EPHEMERIS_TYPE": 0, "CLASSIFICATION_TYPE": "U", "NORAD_CAT_ID": 58648, "ELEMENT_SET_NO": 999, "REV_AT_EPOCH": 11079, "BSTAR": 0.00027616623, "MEAN_MOTION_DOT": 6.752e-05, "MEAN_MOTION_DDOT": 0}, "tle": {"line1": "1 58648U 23205D   25358.01441880  .00006752  00000+0  27617-3 0  9997", "line2": "2 58648  97.3543  16.7852 0007265 223.9345 136.1316 15.24642532110794"}}, "geometry": {"type": "Point", "coordinates": [174.74519541277826, -71.23467619643914]}}, {"type": "Feature", "properties": {"norad_id": 58660, "name": "TIANMU-1 19", "group": "weather", "lat": -70.48707838406051, "lon": 130.97543469930469, "alt_km": 488.63188753169925, "timestamp": "2025-12-24T07:45:05.842242+00:00", "meta": {"OBJECT_NAME": "TIANMU-1 19", "OBJECT_ID": "2023-208A", "EPOCH": "2025-12-23T22:38:10.370112", "MEAN_MOTION": 15.28045578, "ECCENTRICITY": 0.0004705, "INCLINATION": 97.4392, "RA_OF_ASC_NODE": 108.9595, "ARG_OF_PERICENTER": 204.9244, "MEAN_ANOMALY": 155.1769, "EPHEMERIS_TYPE": 0, "CLASSIFICATION_TYPE": "U", "NORAD_CAT_ID": 58660, "ELEMENT_SET_NO": 999, "REV_AT_EPOCH": 11053, "BSTAR": 0.00035446392, "MEAN_MOTION_DOT": 9.627e-05, "MEAN_MOTION_DDOT": 0}, "tle": {"line1": "1 58660U 23208A   25357.94317558  .00009627  00000+0  35446-3 0  9992", "line2": "2 58660  97.4392 108.9595 0004705 204.9244 155.1769 15.28045578110538"}}, "geometry": {"type": "Point", "coordinates": [130.97543469930469, -70.48707838406051]}}, {"type": "Feature", "properties": {"norad_id": 58661, "name": "TIANMU-1 20", "group": "weather", "lat": 51.17598117822997, "lon": 100.46076630155711, "alt_km": 477.89319923809217, "timestamp": "2025-12-24T07:45:05.842252+00:00", "meta": {"OBJECT_NAME": "TIANMU-1 20", "OBJECT_ID": "2023-208B", "EPOCH": "2025-12-23T22:06:11.377728", "MEAN_MOTION": 15.29236362, "ECCENTRICITY": 0.00067525, "INCLINATION": 97.433, "RA_OF_ASC_NODE": 109.3959, "ARG_OF_PERICENTER": 219.3872, "MEAN_ANOMALY": 140.6877, "EPHEMERIS_TYPE": 0, "CLASSIFICATION_TYPE": "U", "NORAD_CAT_ID": 58661, "ELEMENT_SET_NO": 999, "REV_AT_EPOCH": 11060, "BSTAR": 0.00035014206, "MEAN_MOTION_DOT": 9.865e-05, "MEAN_MOTION_DDOT": 0}, "tle": {"line1": "1 58661U 23208B   25357.92096502  .00009865  00000+0  35014-3 0  9999", "line2": "2 58661  97.4330 109.3959 0006752 219.3872 140.6877 15.29236362110602"}}, "geometry": {"type": "Point", "coordinates": [100.46076630155711, 51.17598117822997]}}]}